TYVAK-182A              
1 48271U 21034D   26068.71131789  .00007163  00000+0  50673-3 0  9991
2 48271  97.5843 129.3711 0004862 316.5650  43.5193 15.05150420264864
STARLINK-6333           
1 56521U 23065U   26067.45250080 -.00001117  00000+0 -67622-4 0  9998
2 56521  43.0010 216.6235 0001020 276.0930  83.9796 15.02536703156448
